OBJECT_NAME,OBJECT_ID,EPOCH,MEAN_MOTION,ECCENTRICITY,INCLINATION,RA_OF_ASC_NODE,ARG_OF_PERICENTER,MEAN_ANOMALY,EPHEMERIS_TYPE,CLASSIFICATION_TYPE,NORAD_CAT_ID,ELEMENT_SET_NO,REV_AT_EPOCH,BSTAR,MEAN_MOTION_DOT,MEAN_MOTION_DDOT
STARLINK-30565,2023-156G,2026-07-14T22:00:04.970880,15.34387870,.00015743,53.1611,207.3462,92.5674,267.5509,0,U,58034,999,15579,.14920956E-4,.128E-5,0
STARLINK-30438,2023-156H,2026-07-14T08:39:40.117536,15.30190949,.00009843,53.1595,209.7330,77.3368,282.7742,0,U,58035,999,15566,.36081038E-4,.709E-5,0
STARLINK-30437,2023-156J,2026-07-14T10:25:52.595328,15.30189270,.00011161,53.1589,209.4759,88.4698,271.6431,0,U,58036,999,15567,-.3955481E-5,-.476E-5,0
STARLINK-30533,2023-156K,2026-07-14T14:24:57.654720,15.34390685,.0000789,53.1598,297.2498,90.6582,269.4511,0,U,58037,999,15448,.16902E-3,.5337E-4,0
STARLINK-30560,2023-156L,2026-07-14T12:23:19.775904,15.30208593,.0001237,53.1610,206.4327,84.2014,275.9128,0,U,58038,999,15572,.89305E-4,.2287E-4,0
STARLINK-30555,2023-156N,2026-07-14T13:33:27.487008,15.34387353,.0001112,53.1596,297.0464,93.7618,266.3511,0,U,58040,999,15448,-.86371E-6,-.405E-5,0
STARLINK-30542,2023-156P,2026-07-14T19:30:50.220864,15.31594765,.00021127,53.1578,207.7474,45.8111,314.3064,0,U,58041,999,15577,.11544279E-1,.375202E-2,0
STARLINK-30563,2023-156Q,2026-07-14T08:31:16.372704,15.30189959,.00010819,53.1592,207.4085,73.6778,286.4341,0,U,58042,999,15574,.11626853E-4,-.15E-6,0
STARLINK-30564,2023-156R,2026-07-14T08:18:30.893760,15.30161827,.0001287,53.1559,210.1815,103.6760,256.4384,0,U,58043,999,15570,-.28978237E-2,-.85113E-3,0
STARLINK-30547,2023-156S,2026-07-14T13:57:41.573952,15.34389409,.00009735,53.1608,297.1080,97.7401,262.3712,0,U,58044,999,15448,-.11875536E-4,-.777E-5,0
STARLINK-30550,2023-156T,2026-07-14T22:37:52.713408,15.34468364,.00010355,53.1601,129.2185,84.6571,275.4549,0,U,58045,999,15687,-.30991081E-3,-.10855E-3,0
STARLINK-30548,2023-156U,2026-07-14T13:24:21.792384,15.34394443,.0000884,53.1606,297.0113,92.6312,267.4792,0,U,58046,999,15443,-.11410937E-4,-.761E-5,0
STARLINK-30529,2023-156V,2026-07-14T22:00:03.000096,15.34236934,.00007456,53.1608,297.4195,166.0260,24.5456,0,U,58047,999,576,.40803678E-1,.1499207E-1,0
STARLINK-30554,2023-156W,2026-07-14T14:06:56.324160,15.30195033,.00007847,53.1587,298.6090,95.7787,264.3303,0,U,58048,999,15441,-.7966836E-5,-.595E-5,0
STARLINK-30568,2023-158A,2026-07-14T12:41:50.986176,15.27568388,.00019497,43.0067,31.1364,267.1500,92.9128,0,U,58051,999,15295,-.41303452E-4,-.1398E-4,0
STARLINK-30575,2023-158B,2026-07-14T20:27:04.513248,15.27576487,.00010987,43.0033,29.2627,266.2228,93.8498,0,U,58052,999,15301,-.3629779E-5,-.362E-5,0
STARLINK-30577,2023-158C,2026-07-14T13:24:11.195424,15.27574855,.00013758,43.0029,30.4810,258.0473,102.0225,0,U,58053,999,15297,.11231E-6,-.259E-5,0
STARLINK-30566,2023-158D,2026-07-13T21:31:30.552960,15.27559291,.00033645,43.0008,34.1344,249.9883,110.0607,0,U,58054,999,15287,-.18638273E-2,-.51175E-3,0
STARLINK-30544,2023-158E,2026-07-14T22:21:22.728384,15.27575361,.00010616,43.0036,28.1424,291.0475,69.0263,0,U,58055,999,15303,.28225325E-4,.515E-5,0
STARLINK-30553,2023-158F,2026-07-14T13:16:47.192736,15.27578552,.00014825,43.0019,30.4587,263.1423,96.9261,0,U,58056,999,15297,.22859364E-4,.367E-5,0
STARLINK-30541,2023-158G,2026-07-14T22:32:28.499136,15.27578663,.00013434,43.0030,28.1979,263.8547,96.2152,0,U,58057,999,15303,.2389358E-4,.395E-5,0
STARLINK-30573,2023-158H,2026-07-14T13:22:21.051840,15.27570170,.00014848,43.0024,30.4864,263.3893,96.6789,0,U,58058,999,15297,-.22505444E-4,-.881E-5,0
STARLINK-30582,2023-158J,2026-07-14T12:50:54.196800,15.27565607,.00014072,43.0046,30.3293,273.3336,86.7355,0,U,58059,999,15297,.15248087E-4,.157E-5,0
STARLINK-30558,2023-158K,2026-07-14T12:25:11.422848,15.27571367,.00012983,43.0062,31.0406,296.5557,63.5162,0,U,58060,999,15296,-.24524667E-4,-.937E-5,0
STARLINK-30579,2023-158L,2026-07-14T22:01:56.419104,15.27573471,.0001449,43.0048,2.7284,251.6400,108.4294,0,U,58061,999,15332,-.56548631E-4,-.1818E-4,0
STARLINK-30588,2023-158M,2026-07-14T21:18:40.544064,15.27566818,.00009579,43.0017,28.6682,281.3431,78.7313,0,U,58062,999,15302,.32154785E-4,.623E-5,0
STARLINK-30585,2023-158N,2026-07-14T23:03:55.951200,15.27580672,.00013237,43.0001,28.3603,265.3450,94.7251,0,U,58063,999,15303,.44730089E-3,.12067E-3,0
STARLINK-30587,2023-158P,2026-07-14T22:26:55.262976,15.27578963,.00014928,43.0028,28.1685,256.0154,104.0532,0,U,58064,999,15303,.2297876E-5,-.199E-5,0
STARLINK-30576,2023-158Q,2026-07-14T21:20:31.875648,15.27574746,.00008917,43.0009,28.6868,265.7329,94.3420,0,U,58065,999,15302,.511274E-5,-.121E-5,0
STARLINK-30571,2023-158R,2026-07-14T21:44:34.257120,15.27586035,.00016438,43.0046,28.8040,284.4085,75.6585,0,U,58066,999,15302,.21605933E-4,.332E-5,0
STARLINK-30567,2023-158S,2026-07-14T12:30:44.140608,15.27577778,.00009288,43.0027,31.0596,236.1669,123.9095,0,U,58067,999,15296,-.14367221E-4,-.657E-5,0
STARLINK-30569,2023-158T,2026-07-14T21:23:30.888672,15.27579463,.00012644,43.0006,32.1044,264.6017,95.4690,0,U,58068,999,15298,.91385153E-4,.2253E-4,0
STARLINK-30480,2023-158U,2026-07-14T10:11:42.791712,15.27573162,.00018221,43.0017,249.1007,278.1438,81.9207,0,U,58069,999,15462,.6534472E-5,-.83E-6,0
STARLINK-30532,2023-158V,2026-07-14T22:58:22.733184,15.27575354,.00008528,43.0038,28.3275,276.7206,83.3549,0,U,58070,999,15303,.283301E-6,-.254E-5,0
STARLINK-30506,2023-158X,2026-07-13T23:40:49.509696,15.27583121,.00017885,43.0026,33.9369,281.7615,78.3036,0,U,58072,999,15288,.78457056E-4,.1897E-4,0
YUNHAI-1 04,2023-159A,2026-07-15T00:24:46.748736,14.32642203,.00027977,98.4968,221.2280,99.4802,260.6698,0,U,58073,999,14378,.95653974E-4,.217E-5,0
STARLINK-30604,2023-160A,2026-07-14T09:09:28.160352,15.27572223,.00011136,43.0034,82.2404,263.4399,96.6326,0,U,58075,999,15232,-.11871891E-4,-.589E-5,0
STARLINK-30500,2023-160B,2026-07-14T17:18:45.093600,15.27575679,.00003254,42.9990,80.4819,268.4325,91.6490,0,U,58076,999,15237,.4010975E-5,-.151E-5,0
STARLINK-30613,2023-160C,2026-07-14T09:18:43.014240,15.27569023,.00009713,43.0014,82.2894,283.5661,76.5083,0,U,58077,999,15233,.41115129E-4,.869E-5,0
STARLINK-30597,2023-160D,2026-07-14T08:58:21.881568,15.27571421,.00010955,43.0016,82.1644,270.7783,89.2943,0,U,58078,999,15232,-.16157479E-4,-.706E-5,0
STARLINK-30598,2023-160E,2026-07-14T21:57:30.403872,15.27578778,.00012597,43.0062,79.3588,280.9347,79.1363,0,U,58079,999,15240,.902303E-5,-.14E-6,0
STARLINK-30603,2023-160F,2026-07-14T22:03:04.290624,15.27585446,.00012913,43.0043,79.3846,267.8320,92.2384,0,U,58080,999,15240,-.18589582E-4,-.774E-5,0
STARLINK-30602,2023-160G,2026-07-14T09:15:56.358144,15.26501838,.00020284,42.9973,85.6890,217.3859,142.6851,0,U,58081,999,15228,.56596945E-3,.14844E-3,0
STARLINK-30610,2023-160H,2026-07-13T23:07:44.512896,15.27563503,.00014119,43.0038,85.1156,258.9393,101.1300,0,U,58082,999,15225,-.36295208E-4,-.126E-4,0
STARLINK-30551,2023-160J,2026-07-14T09:23:32.520768,15.27585875,.00012608,43.0020,85.7079,270.7328,89.3379,0,U,58083,999,15228,-.51926548E-4,-.1691E-4,0
STARLINK-30586,2023-160K,2026-07-14T09:29:06.412704,15.27576446,.00011077,43.0022,85.7395,277.1808,82.8918,0,U,58084,999,15228,-.989853E-6,-.289E-5,0
STARLINK-30609,2023-160L,2026-07-14T09:34:39.805248,15.27570703,.00011407,43.0025,85.7686,268.5654,91.5067,0,U,58085,999,15228,-.37464004E-4,-.1292E-4,0
STARLINK-30583,2023-160M,2026-07-14T22:13:27.739200,15.27583405,.00011663,43.0009,82.8466,267.6870,92.3848,0,U,58086,999,15236,.63957318E-4,.1498E-4,0
STARLINK-30557,2023-160N,2026-07-14T01:54:58.553568,15.27574144,.00010506,43.0017,87.6721,251.8049,108.2688,0,U,58087,999,15223,-.25458054E-4,-.962E-5,0
STARLINK-30591,2023-160P,2026-07-14T08:54:40.468608,15.27567712,.00012154,42.9994,82.1503,267.3899,92.6814,0,U,58088,999,15232,-.19403165E-4,-.796E-5,0
STARLINK-30584,2023-160Q,2026-07-14T09:15:01.113120,15.27568036,.0000393,43.0004,82.2607,282.4936,77.5872,0,U,58089,999,15232,.52230273E-4,.1175E-4,0
STARLINK-30590,2023-160R,2026-07-14T22:26:24.535680,15.27577578,.00011432,43.0041,82.8905,276.7636,83.3086,0,U,58090,999,15236,.4690615E-4,.1029E-4,0
STARLINK-30608,2023-160S,2026-07-14T22:10:28.278624,15.27573869,.0001825,43.0071,79.4241,269.1749,90.8894,0,U,58091,999,15240,-.23089253E-4,-.898E-5,0
STARLINK-30615,2023-160T,2026-07-13T23:24:23.009184,15.27574249,.00014875,43.0018,85.1922,265.6597,94.4084,0,U,58092,999,15225,-.5962185E-5,-.426E-5,0
STARLINK-30578,2023-160U,2026-07-14T09:13:09.902496,15.27574326,.00011544,43.0022,82.2422,269.7278,90.3441,0,U,58093,999,15232,-.10505503E-4,-.551E-5,0
STARLINK-30574,2023-160V,2026-07-14T09:07:36.792480,15.27577000,.00010705,43.0010,82.2164,283.0116,77.0616,0,U,58094,999,15232,.6285031E-5,-.89E-6,0
STARLINK-30570,2023-160W,2026-07-14T21:55:39.813600,15.27585141,.00016042,43.0067,79.3409,242.8497,117.2192,0,U,58095,999,15240,-.89058312E-4,-.2713E-4,0
STARLINK-30581,2023-160X,2026-07-14T09:39:04.135680,15.27571279,.00013373,43.0026,82.3716,258.0681,102.0021,0,U,58096,999,15232,-.4594303E-5,-.388E-5,0
STARLINK-30594,2023-161A,2026-07-14T12:29:09.512736,15.34388163,.00011678,53.1596,295.4543,64.8727,295.2397,0,U,58097,999,15385,-.3320219E-4,-.1497E-4,0
STARLINK-30614,2023-161B,2026-07-14T14:21:07.950816,15.34385471,.0001281,53.1614,295.2271,68.2210,291.8929,0,U,58098,999,15386,-.6149479E-5,-.584E-5,0
STARLINK-30607,2023-161C,2026-07-14T12:59:27.378240,15.30203366,.00011439,53.1611,286.2924,107.5597,252.5529,0,U,58099,999,15397,-.16260037E-4,-.841E-5,0
STARLINK-30600,2023-161D,2026-07-14T13:23:33.489600,15.34387138,.00008971,53.1603,294.9660,84.5424,275.5680,0,U,58100,999,15386,-.5723836E-5,-.569E-5,0
STARLINK-30605,2023-161E,2026-07-14T13:05:30.550272,15.34390744,.00012218,53.1609,295.6070,85.1295,274.9848,0,U,58101,999,15385,-.17450491E-4,-.966E-5,0
STARLINK-30592,2023-161F,2026-07-14T13:29:38.430240,15.34385794,.00012693,53.1606,295.0042,84.6682,275.4466,0,U,58102,999,15386,.50988457E-4,.1346E-4,0
